IRIDIUM 7 [-]           
1 24793U 97020B   23335.16353514  .00000765  00000+0  26196-3 0  9991
2 24793  86.3979  53.1478 0002088  99.3559 260.7873 14.34995866391208
IRIDIUM 5 [-]           
1 24795U 97020D   23335.10389497  .00007566  00000+0  75626-3 0  9994
2 24795  86.3925 341.6810 0126098 349.5931  10.2684 14.85490009401528
IRIDIUM 4 [-]           
1 24796U 97020E   23335.15795243  .00000793  00000+0  26686-3 0  9997
2 24796  86.3975  50.4024 0001914  93.1258 267.0158 14.35904924391537
IRIDIUM 914 [-]         
1 24836U 97030A   23335.16319579  .00001021  00000+0  32009-3 0  9999
2 24836  86.3948  60.6513 0000333  54.2663 305.8567 14.39728218388041
IRIDIUM 16 [-]          
1 24841U 97030F   23334.84694365  .00001032  00000+0  33746-3 0  9999
2 24841  86.4034  82.2575 0004037 105.8256 254.3387 14.37613147386158
IRIDIUM 911 [-]         
1 24842U 97030G   23334.36631003  .00001713  00000+0  47347-3 0  9995
2 24842  86.4458  81.7517 0014590 171.7147 188.4299 14.46163420393392
IRIDIUM 17 [-]          
1 24870U 97034B   23334.82950937  .00001294  00000+0  43293-3 0  9991
2 24870  86.3944 111.9285 0003563  76.9003 283.2591 14.36704463382524
IRIDIUM 920 [-]         
1 24871U 97034C   23334.86668668  .00001119  00000+0  34587-3 0  9995
2 24871  86.3968  92.4515 0012906 135.6967 224.5267 14.40427409385576
